[{"OBJECT_NAME":"ONEWEB-0223","OBJECT_ID":"2021-045B","EPOCH":"2025-11-04T07:00:06.670368","MEAN_MOTION":13.15549811,"ECCENTRICITY":0.0002236,"INCLINATION":87.8954,"RA_OF_ASC_NODE":304.0623,"ARG_OF_PERICENTER":99.151,"MEAN_ANOMALY":260.9874,"EPHEMERIS_TYPE":0,"CLASSIFICATION_TYPE":"U","NORAD_CAT_ID":48768,"ELEMENT_SET_NO":999,"REV_AT_EPOCH":21483,"BSTAR":0.00038498592,"MEAN_MOTION_DOT":1.58e-6,"MEAN_MOTION_DDOT":0},{"OBJECT_NAME":"ONEWEB-0230","OBJECT_ID":"2021-045C","EPOCH":"2025-11-04T00:50:29.067360","MEAN_MOTION":13.15549377,"ECCENTRICITY":0.00017378,"INCLINATION":87.8947,"RA_OF_ASC_NODE":304.1457,"ARG_OF_PERICENTER":90.5452,"MEAN_ANOMALY":269.5878,"EPHEMERIS_TYPE":0,"CLASSIFICATION_TYPE":"U","NORAD_CAT_ID":48769,"ELEMENT_SET_NO":999,"REV_AT_EPOCH":21506,"BSTAR":0.00019181557,"MEAN_MOTION_DOT":8.5e-7,"MEAN_MOTION_DDOT":0},{"OBJECT_NAME":"ONEWEB-0237","OBJECT_ID":"2021-045D","EPOCH":"2025-11-04T06:03:04.481280","MEAN_MOTION":13.15550064,"ECCENTRICITY":0.00020085,"INCLINATION":87.8953,"RA_OF_ASC_NODE":304.1006,"ARG_OF_PERICENTER":97.5787,"MEAN_ANOMALY":262.5571,"EPHEMERIS_TYPE":0,"CLASSIFICATION_TYPE":"U","NORAD_CAT_ID":48770,"ELEMENT_SET_NO":999,"REV_AT_EPOCH":21481,"BSTAR":4.22634e-6,"MEAN_MOTION_DOT":1.4e-7,"MEAN_MOTION_DDOT":0},{"OBJECT_NAME":"ONEWEB-0235","OBJECT_ID":"2021-045E","EPOCH":"2025-11-04T05:26:33.896544","MEAN_MOTION":13.15549625,"ECCENTRICITY":0.00021886,"INCLINATION":87.8954,"RA_OF_ASC_NODE":304.0763,"ARG_OF_PERICENTER":100.2157,"MEAN_ANOMALY":259.922,"EPHEMERIS_TYPE":0,"CLASSIFICATION_TYPE":"U","NORAD_CAT_ID":48771,"ELEMENT_SET_NO":999,"REV_AT_EPOCH":21480,"BSTAR":-4.7534926e-5,"MEAN_MOTION_DOT":-5.0e-8,"MEAN_MOTION_DDOT":0},{"OBJECT_NAME":"ONEWEB-0242","OBJECT_ID":"2021-045F","EPOCH":"2025-11-04T07:06:58.376736","MEAN_MOTION":13.15550393,"ECCENTRICITY":0.00018508,"INCLINATION":87.8969,"RA_OF_ASC_NODE":304.0529,"ARG_OF_PERICENTER":95.7283,"MEAN_ANOMALY":264.4059,"EPHEMERIS_TYPE":0,"CLASSIFICATION_TYPE":"U","NORAD_CAT_ID":48772,"ELEMENT_SET_NO":999,"REV_AT_EPOCH":21485,"BSTAR":0.00058467314,"MEAN_MOTION_DOT":2.33e-6,"MEAN_MOTION_DDOT":0},{"OBJECT_NAME":"ONEWEB-0241","OBJECT_ID":"2021-045G","EPOCH":"2025-11-04T01:20:09.312576","MEAN_MOTION":13.15548925,"ECCENTRICITY":0.00022914,"INCLINATION":87.8955,"RA_OF_ASC_NODE":304.1426,"ARG_OF_PERICENTER":92.5122,"MEAN_ANOMALY":267.6271,"EPHEMERIS_TYPE":0,"CLASSIFICATION_TYPE":"U","NORAD_CAT_ID":48773,"ELEMENT_SET_NO":999,"REV_AT_EPOCH":21473,"BSTAR":4.4581339e-5,"MEAN_MOTION_DOT":3.0e-7,"MEAN_MOTION_DDOT":0},{"OBJECT_NAME":"ONEWEB-0243","OBJECT_ID":"2021-045H","EPOCH":"2025-11-04T05:44:48.952608","MEAN_MOTION":13.15547414,"ECCENTRICITY":0.00020055,"INCLINATION":87.8961,"RA_OF_ASC_NODE":304.1131,"ARG_OF_PERICENTER":100.938,"MEAN_ANOMALY":259.1976,"EPHEMERIS_TYPE":0,"CLASSIFICATION_TYPE":"U","NORAD_CAT_ID":48774,"ELEMENT_SET_NO":999,"REV_AT_EPOCH":21478,"BSTAR":-0.00020416331,"MEAN_MOTION_DOT":-6.4e-7,"MEAN_MOTION_DDOT":0},{"OBJECT_NAME":"ONEWEB-0222","OBJECT_ID":"2021-045J","EPOCH":"2025-11-04T05:20:51.344736","MEAN_MOTION":13.15550189,"ECCENTRICITY":0.00019656,"INCLINATION":87.8959,"RA_OF_ASC_NODE":304.0681,"ARG_OF_PERICENTER":92.7229,"MEAN_ANOMALY":267.4127,"EPHEMERIS_TYPE":0,"CLASSIFICATION_TYPE":"U","NORAD_CAT_ID":48775,"ELEMENT_SET_NO":999,"REV_AT_EPOCH":21482,"BSTAR":0.00023647995,"MEAN_MOTION_DOT":1.02e-6,"MEAN_MOTION_DDOT":0},{"OBJECT_NAME":"ONEWEB-0244","OBJECT_ID":"2021-045K","EPOCH":"2025-11-04T05:58:30.930240","MEAN_MOTION":13.1554916,"ECCENTRICITY":0.00019403,"INCLINATION":87.8965,"RA_OF_ASC_NODE":304.049,"ARG_OF_PERICENTER":94.0014,"MEAN_ANOMALY":266.1338,"EPHEMERIS_TYPE":0,"CLASSIFICATION_TYPE":"U","NORAD_CAT_ID":48776,"ELEMENT_SET_NO":999,"REV_AT_EPOCH":21539,"BSTAR":-0.00021658054,"MEAN_MOTION_DOT":-6.9e-7,"MEAN_MOTION_DDOT":0},{"OBJECT_NAME":"ONEWEB-0247","OBJECT_ID":"2021-045L","EPOCH":"2025-11-04T05:53:56.564448","MEAN_MOTION":13.15550116,"ECCENTRICITY":0.00024468,"INCLINATION":87.8951,"RA_OF_ASC_NODE":304.1117,"ARG_OF_PERICENTER":112.4772,"MEAN_ANOMALY":247.6617,"EPHEMERIS_TYPE":0,"CLASSIFICATION_TYPE":"U","NORAD_CAT_ID":48777,"ELEMENT_SET_NO":999,"REV_AT_EPOCH":21483,"BSTAR":6.6918814e-5,"MEAN_MOTION_DOT":3.8e-7,"MEAN_MOTION_DDOT":0},{"OBJECT_NAME":"ONEWEB-0245","OBJECT_ID":"2021-045M","EPOCH":"2025-11-04T05:47:05.196768","MEAN_MOTION":13.15550839,"ECCENTRICITY":0.00020841,"INCLINATION":87.8953,"RA_OF_ASC_NODE":304.0769,"ARG_OF_PERICENTER":88.8273,"MEAN_ANOMALY":271.3096,"EPHEMERIS_TYPE":0,"CLASSIFICATION_TYPE":"U","NORAD_CAT_ID":48778,"ELEMENT_SET_NO":999,"REV_AT_EPOCH":21480,"BSTAR":-0.000223182,"MEAN_MOTION_DOT":-7.1e-7,"MEAN_MOTION_DDOT":0},{"OBJECT_NAME":"ONEWEB-0229","OBJECT_ID":"2021-045N","EPOCH":"2025-11-04T05:40:14.894400","MEAN_MOTION":13.15550017,"ECCENTRICITY":0.00018213,"INCLINATION":87.8953,"RA_OF_ASC_NODE":304.0767,"ARG_OF_PERICENTER":94.8855,"MEAN_ANOMALY":265.2484,"EPHEMERIS_TYPE":0,"CLASSIFICATION_TYPE":"U","NORAD_CAT_ID":48779,"ELEMENT_SET_NO":999,"REV_AT_EPOCH":21483,"BSTAR":-2.0917647e-5,"MEAN_MOTION_DOT":5.0e-8,"MEAN_MOTION_DDOT":0},{"OBJECT_NAME":"ONEWEB-0228","OBJECT_ID":"2021-045P","EPOCH":"2025-11-04T06:28:22.245888","MEAN_MOTION":13.15549868,"ECCENTRICITY":0.00019274,"INCLINATION":87.8961,"RA_OF_ASC_NODE":304.0502,"ARG_OF_PERICENTER":93.8909,"MEAN_ANOMALY":266.2442,"EPHEMERIS_TYPE":0,"CLASSIFICATION_TYPE":"U","NORAD_CAT_ID":48780,"ELEMENT_SET_NO":999,"REV_AT_EPOCH":21475,"BSTAR":-6.7226569e-5,"MEAN_MOTION_DOT":-1.2e-7,"MEAN_MOTION_DDOT":0},{"OBJECT_NAME":"ONEWEB-0232","OBJECT_ID":"2021-045Q","EPOCH":"2025-11-04T05:51:39.490848","MEAN_MOTION":13.15549797,"ECCENTRICITY":0.00018582,"INCLINATION":87.8961,"RA_OF_ASC_NODE":304.0462,"ARG_OF_PERICENTER":91.2315,"MEAN_ANOMALY":268.9028,"EPHEMERIS_TYPE":0,"CLASSIFICATION_TYPE":"U","NORAD_CAT_ID":48781,"ELEMENT_SET_NO":999,"REV_AT_EPOCH":21507,"BSTAR":-0.0003483516,"MEAN_MOTION_DOT":-1.18e-6,"MEAN_MOTION_DDOT":0},{"OBJECT_NAME":"ONEWEB-0231","OBJECT_ID":"2021-045R","EPOCH":"2025-11-04T05:19:43.787712","MEAN_MOTION":13.15549455,"ECCENTRICITY":0.00019721,"INCLINATION":87.8951,"RA_OF_ASC_NODE":304.0985,"ARG_OF_PERICENTER":98.5369,"MEAN_ANOMALY":261.5985,"EPHEMERIS_TYPE":0,"CLASSIFICATION_TYPE":"U","NORAD_CAT_ID":48782,"ELEMENT_SET_NO":999,"REV_AT_EPOCH":21476,"BSTAR":0.00024866306,"MEAN_MOTION_DOT":1.06e-6,"MEAN_MOTION_DDOT":0},{"OBJECT_NAME":"ONEWEB-0234","OBJECT_ID":"2021-045S","EPOCH":"2025-11-04T06:14:16.607616","MEAN_MOTION":13.15550184,"ECCENTRICITY":0.00023203,"INCLINATION":87.8955,"RA_OF_ASC_NODE":304.0627,"ARG_OF_PERICENTER":69.7034,"MEAN_ANOMALY":290.4346,"EPHEMERIS_TYPE":0,"CLASSIFICATION_TYPE":"U","NORAD_CAT_ID":48783,"ELEMENT_SET_NO":999,"REV_AT_EPOCH":21490,"BSTAR":7.1524188e-5,"MEAN_MOTION_DOT":4.0e-7,"MEAN_MOTION_DDOT":0}]
