ONEWEB-0223             
1 48768U 21045B   25308.29174387  .00000158  00000+0  38499-3 0  9993
2 48768  87.8954 304.0623 0002236  99.1510 260.9874 13.15549811214834
ONEWEB-0230             
1 48769U 21045C   25308.03505865  .00000085  00000+0  19182-3 0  9992
2 48769  87.8947 304.1457 0001737  90.5452 269.5878 13.15549377215060
ONEWEB-0237             
1 48770U 21045D   25308.25213520  .00000014  00000+0  42263-5 0  9992
2 48770  87.8953 304.1006 0002008  97.5787 262.5571 13.15550064214819
ONEWEB-0235             
1 48771U 21045E   25308.22678121 -.00000005  00000+0 -47535-4 0  9990
2 48771  87.8954 304.0763 0002188 100.2157 259.9220 13.15549625214803
ONEWEB-0242             
1 48772U 21045F   25308.29650899  .00000233  00000+0  58467-3 0  9996
2 48772  87.8969 304.0529 0001850  95.7283 264.4059 13.15550393214853
ONEWEB-0241             
1 48773U 21045G   25308.05566334  .00000030  00000+0  44581-4 0  9999
2 48773  87.8955 304.1426 0002291  92.5122 267.6271 13.15548925214739
ONEWEB-0243             
1 48774U 21045H   25308.23945547 -.00000064  00000+0 -20416-3 0  9996
2 48774  87.8961 304.1131 0002005 100.9380 259.1976 13.15547414214788
ONEWEB-0222             
1 48775U 21045J   25308.22281649  .00000102  00000+0  23648-3 0  9993
2 48775  87.8959 304.0681 0001965  92.7229 267.4127 13.15550189214827
ONEWEB-0244             
1 48776U 21045K   25308.24896910 -.00000069  00000+0 -21658-3 0  9992
2 48776  87.8965 304.0490 0001940  94.0014 266.1338 13.15549160215393
ONEWEB-0247             
1 48777U 21045L   25308.24579357  .00000038  00000+0  66919-4 0  9990
2 48777  87.8951 304.1117 0002446 112.4772 247.6617 13.15550116214839
ONEWEB-0245             
1 48778U 21045M   25308.24103237 -.00000071  00000+0 -22318-3 0  9994
2 48778  87.8953 304.0769 0002084  88.8273 271.3096 13.15550839214808
ONEWEB-0229             
1 48779U 21045N   25308.23628350  .00000005  00000+0 -20918-4 0  9993
2 48779  87.8953 304.0767 0001821  94.8855 265.2484 13.15550017214832
ONEWEB-0228             
1 48780U 21045P   25308.26970192 -.00000012  00000+0 -67227-4 0  9995
2 48780  87.8961 304.0502 0001927  93.8909 266.2442 13.15549868214754
ONEWEB-0232             
1 48781U 21045Q   25308.24420707 -.00000118  00000+0 -34835-3 0  9991
2 48781  87.8961 304.0462 0001858  91.2315 268.9028 13.15549797215072
ONEWEB-0231             
1 48782U 21045R   25308.22203458  .00000106  00000+0  24866-3 0  9990
2 48782  87.8951 304.0985 0001972  98.5369 261.5985 13.15549455214765
ONEWEB-0234             
1 48783U 21045S   25308.25991444  .00000040  00000+0  71524-4 0  9994
2 48783  87.8955 304.0627 0002320  69.7034 290.4346 13.15550184214909
